{"fetched_at":"2026-07-11T06:35:14.954Z","source":"https://celestrak.org/NORAD/elements/gp.php?GROUP=stations&FORMAT=JSON","constellation":"tiangong","records":[{"OBJECT_NAME":"CSS (TIANHE)","OBJECT_ID":"2021-035A","EPOCH":"2026-07-10T15:56:00.671424","CLASSIFICATION_TYPE":"U","MEAN_MOTION":15.58017309,"ECCENTRICITY":0.0002646,"INCLINATION":41.4687,"RA_OF_ASC_NODE":179.2973,"ARG_OF_PERICENTER":286.4983,"MEAN_ANOMALY":73.5564,"EPHEMERIS_TYPE":0,"NORAD_CAT_ID":48274,"ELEMENT_SET_NO":999,"REV_AT_EPOCH":29683,"BSTAR":0.000022297,"MEAN_MOTION_DOT":0.00001391,"MEAN_MOTION_DDOT":0}]}
